STARLINK-1998_new
1 17593C 21009AX  21326.13132054 -.00014744  00000-0 -98770-3 0  3263
2 17593  53.0522 243.1609 0001835  68.3240  69.0161 15.06417671    14
STARLINK-1998_old
1 27593C 21009AX  21325.12569906  .00007476  00000-0  50087-3 0  3251
2 27593  53.0523 247.6753 0001777  68.9794  11.8101 15.06392571    19
